CSTP-4.3
1 64882U 25155G   26027.57588473  .00015380  00000-0  59056-3 0  9995
2 64882  97.4414 356.0858 0006375 331.6905  28.3986 15.26527616 59283
CSTP-4.2
1 64883U 25155H   26027.57629582  .00016040  00000-0  61624-3 0  9991
2 64883  97.4409 356.0746 0006280 330.4312  29.6571 15.26502974 59282
CSTP-4.4
1 64884U 25155J   26027.83782502  .00016004  00000-0  61388-3 0  9990
2 64884  97.4401 356.3403 0006571 321.5079  38.5690 15.26553359 59321
ASTROLINE-N3
1 64886U 25155L   26027.84626306  .00041876  00000-0  13293-2 0  9998
2 64886  97.4335 356.9669 0005592 326.1675  33.9209 15.32531044 59378
ASTROLINE-N2
1 64888U 25155N   26027.84113336  .00041071  00000-0  13012-2 0  9990
2 64888  97.4340 356.9912 0004953 322.3018  37.7877 15.32599569 59375
GEOSCAN 2 (RS92S2)
1 64890U 25155Q   26027.83604583  .00018477  00000-0  68899-3 0  9999
2 64890  97.4389 356.4591 0005586 315.2269  44.8519 15.27465766 59334
GEOSCAN-5 (RS92S5)
1 64891U 25155R   26027.83118182  .00022680  00000-0  81379-3 0  9994
2 64891  97.4389 356.6293 0005425 343.6262  16.4801 15.28689850 59349
GEOSCAN-4 (RS92S4)
1 64892U 25155S   26027.82607705  .00022848  00000-0  81777-3 0  9996
2 64892  97.4391 356.6412 0005488 344.6964  15.4109 15.28770491 59347
GEOSCAN-3 (RS92S3)
1 64893U 25155T   26027.83521688  .00025867  00000-0  89663-3 0  9999
2 64893  97.4386 356.7722 0005315 350.0023  10.1110 15.29794227 59352
INNOSAT3 (RS92S0)
1 64894U 25155U   26027.85283480  .00045276  00000-0  13946-2 0  9993
2 64894  97.4363 357.1836 0004882   1.2785 358.8469 15.33475536 59383
CSTP-4.1
1 64895U 25155V   26027.77241502  .00018205  00000-0  69768-3 0  9990
2 64895  97.4410 356.2718 0006176 329.3916  30.6961 15.26558171 59307
RSP-03
1 65732U 98067XL  26027.69313108  .00423395  00000-0  14093-2 0  9996
2 65732  51.6204 259.5751 0005449 183.7564 176.3400 15.88612119 20413
YOTSUBA-KULOVER
1 65941U 98067XN  26026.78542595  .00124754  00000-0  11076-2 0  9996
2 65941  51.6263 272.3380 0004434 169.0329 191.0765 15.67633382 16909
BOTAN
1 65942U 98067XP  26026.68927312  .00263485  00000-0  15443-2 0  9997
2 65942  51.6210 270.1730 0005275 178.3633 181.7385 15.76971767 16920
E-KAGAKU-1
1 65943U 98067XQ  26026.72183308  .00119845  00000-0  10682-2 0  9992
2 65943  51.6283 272.6721 0003159 176.1816 183.9205 15.67561224 16890
SILVERSAT
1 66909U 98067XV  26027.66481558  .00127884  00000-0  15297-2 0  9996
2 66909  51.6289 272.9632 0003364 145.3172 214.8041 15.60055974  8766
POLYTECH UNIVERSE-3 (RS46S)
1 57191U 23091AB  26027.83916800  .00009182  00000-0  45945-3 0  9990
2 57191  97.5270  86.5371 0014638 256.3839 103.5764 15.17545767142655
CSTP-1.1
1 57202U 23091AN  26027.83888088  .00009664  00000-0  48410-3 0  9994
2 57202  97.5336  87.4373 0008566 232.3604 127.6853 15.17556138142661
CSTP-1.2
1 57186U 23091W   26027.87208087  .00013930  00000-0  53749-3 0  9996
2 57186  97.5355  92.8831 0018413 225.5169 134.4564 15.26253466143039
PICO-1B-3
1 60564U 24149DA  26027.70185905  .00592744  00000-0  46255-2 0  9998
2 60564  97.6769 123.3741 0006614 286.1567  73.8966 15.69901536 80169
PICO-1B-4
1 60567U 24149DD  26027.65826581  .01671573  14188-2  54767-2 0  9997
2 60567  97.6743 125.0142 0009992 302.7556  57.2753 15.90815014 80230
PICO-1B-6
1 60569U 24149DF  26027.22868135  .01325363  00000-0  46914-2 0  9997
2 60569  97.6595 124.6058 0009918 301.5556  58.4745 15.86354460 80178
PICO-1B-8
1 60570U 24149DG  26027.70840484  .01389610  00000-0  53828-2 0  9996
2 60570  97.6714 124.2787 0009626 300.6812  59.3507 15.84322861 80218
PICO-1B-9
1 60568U 24149DE  26027.70689678  .01432672  93521-3  53807-2 0  9996
2 60568  97.6680 124.4310 0010054 304.7867  55.2457 15.87948469 80224
MULE-4T
1 67286U 25313AQ  26027.80312885  .00014820  00000-0  65814-3 0  9997
2 67286  97.4089 104.7930 0011360 124.7529 235.4778 15.21587916  4604
SCORPION (RS89S)
1 67293U 25313AX  26027.80166117  .00006869  00000-0  30762-3 0  9998
2 67293  97.4088 104.7932 0012667 117.6359 242.6164 15.21503937  4606
GALAPAGOS-UTE-SWSU
1 67279U 25313AH  26027.75675152  .00012187  00000-0  55709-3 0  9998
2 67279  97.4079 104.7047 0015808 133.4065 226.8489 15.20586592  4596
SAKHACUBE-CHOLBON (RS18S)
1 67290U 25313AU  26027.79967054  .00016004  00000-0  70498-3 0  9994
2 67290  97.4088 104.7982 0010962 125.9134 234.3121 15.21852757  4605
LUCA-1 (RS90S)
1 67287U 25313AR  26027.66988615  .00015136  00000-0  66926-3 0  9998
2 67287  97.4088 104.6663 0011251 126.9197 233.3072 15.21732331  4584
QMR-KWT-2 (RS95S)
1 67291U 25313AV  26027.79821258  .00021660  00000-0  94683-3 0  9996
2 67291  97.4089 104.8002 0010787 125.8976 234.3263 15.22051919  4608
LOBACHEVSKY (RS83S)
1 67282U 25313AL  26027.34686186  .00010756  00000-0  48299-3 0  9992
2 67282  97.4083 104.3238 0012282 129.7725 230.4594 15.21275769  4531
NASBSAT-1
1 67289U 25313AT  26027.79850895  .00020112  00000-0  87983-3 0  9998
2 67289  97.4090 104.8003 0011078 126.8058 233.4197 15.22038074  4607
NASBSAT-2
1 67285U 25313AP  26027.80371896  .00012236  00000-0  54442-3 0  9997
2 67285  97.4069 104.7753 0011734 129.3711 230.8566 15.21564177  4601
HORS-5
1 67283U 25313AM  26027.80493467  .00014518  00000-0  64569-3 0  9990
2 67283  97.4092 104.7834 0012071 128.0128 232.2200 15.21533270  4609
AIST-2T 1
1 67253U 25313F   26027.79298266  .00072683  00000-0  68231-3 0  9992
2 67253  97.1005 105.2391 0010458 130.8821 229.3348 15.66878465  4718
AIST-2T 2
1 67254U 25313G   26027.80380651  .00063178  00000-0  65768-3 0  9996
2 67254  97.1005 105.2240 0007774 178.6016 181.5267 15.64343223  4700
AIST-ST (RS86S)
1 67267U 25313V   26027.75739833  .00017869  00000-0  81226-3 0  9997
2 67267  97.4095 104.7021 0015362 138.6735 221.5666 15.20698021  4599
GRIFON-1
1 67281U 25313AK  26027.74888747  .00009594  00000-0  43584-3 0  9992
2 67281  97.4034 104.6952 0013511 129.3497 230.8938 15.20896397  4597
GRIFON-2
1 67272U 25313AA  26027.75575617  .00018019  00000-0  81632-3 0  9990
2 67272  97.4094 104.7020 0015983 134.5280 225.7264 15.20803277  4593
GRIFON-3
1 67280U 25313AJ  26027.75069756  .00009500  00000-0  43257-3 0  9997
2 67280  97.4151 104.7280 0014803 130.3226 229.9306 15.20803228  4597
GRIFON-4
1 67261U 25313P   26027.75453118  .00026910  00000-0  12059-2 0  9994
2 67261  97.4127 104.7278 0016044 132.9231 227.3354 15.21093502  4591
MARAFON
1 67250U 25313C   26027.80428278  .00018919  00000-0  17442-2 0  9998
2 67250  97.6335 104.0738 0161512  80.9536 280.9917 14.85244449  4493
MARAFON-EXPERIMENTAL
1 67251U 25313D   26027.78795778  .00003777  00000-0  32951-3 0  9997
2 67251  97.5853 104.0421 0152179  73.5717 288.2165 14.88855687  4508
MORSAT-1 (RS96S)
1 90006U          25362.61156250  .00023360  00000-0  10621-2 0 00008
2 90006 097.4083 075.0759 0011953 237.7531 125.8000 15.20580905000100
